{
  "type": "FeatureCollection",
  "features": [
    {
      "type": "Feature",
      "properties": {
        "norad_id": 38867,
        "name": "INTELSAT 23 (IS-23)",
        "group": "intelsat",
        "lat": 0.02128323702147543,
        "lon": 171.57964482688502,
        "alt_km": 35787.44103488453,
        "timestamp": "2025-12-26T08:37:54.237648+00:00",
        "meta_object_name": "INTELSAT 23 (IS-23)",
        "meta_object_id": "2012-057A",
        "meta_epoch": "2025-12-26T02:05:46.285728",
        "meta_mean_motion": 1.00273309,
        "meta_eccentricity": 6.02e-05,
        "meta_inclination": 0.0169,
        "meta_ra_of_asc_node": 76.6444,
        "meta_arg_of_pericenter": 228.7925,
        "meta_mean_anomaly": 127.8518,
        "meta_ephemeris_type": 0,
        "meta_classification_type": "U",
        "meta_norad_cat_id": 38867,
        "meta_element_set_no": 999,
        "meta_rev_at_epoch": 4821,
        "meta_bstar": 0,
        "meta_mean_motion_dot": -2.63e-06,
        "meta_mean_motion_ddot": 0,
        "tle_line1": "1 38867U 12057A   25360.08734127 -.00000263  00000+0  00000+0 0  9995",
        "tle_line2": "2 38867   0.0169  76.6444 0000602 228.7925 127.8518  1.00273309 48216"
      },
      "geometry": {
        "type": "Point",
        "coordinates": [
          171.57964482688502,
          0.02128323702147543
        ]
      }
    },
    {
      "type": "Feature",
      "properties": {
        "norad_id": 39360,
        "name": "FM-6",
        "group": "intelsat",
        "lat": 0.02462994533187654,
        "lon": 108.35758843873279,
        "alt_km": 35783.07187679738,
        "timestamp": "2025-12-26T08:37:54.237659+00:00",
        "meta_object_name": "FM-6",
        "meta_object_id": "2013-058A",
        "meta_epoch": "2025-12-25T23:15:38.712384",
        "meta_mean_motion": 1.00267622,
        "meta_eccentricity": 0.0003134,
        "meta_inclination": 0.0194,
        "meta_ra_of_asc_node": 74.6696,
        "meta_arg_of_pericenter": 105.3027,
        "meta_mean_anomaly": 147.4825,
        "meta_ephemeris_type": 0,
        "meta_classification_type": "U",
        "meta_norad_cat_id": 39360,
        "meta_element_set_no": 999,
        "meta_rev_at_epoch": 4433,
        "meta_bstar": 0,
        "meta_mean_motion_dot": 5e-08,
        "meta_mean_motion_ddot": 0,
        "tle_line1": "1 39360U 13058A   25359.96919806  .00000005  00000+0  00000+0 0  9993",
        "tle_line2": "2 39360   0.0194  74.6696 0003134 105.3027 147.4825  1.00267622 44335"
      },
      "geometry": {
        "type": "Point",
        "coordinates": [
          108.35758843873279,
          0.02462994533187654
        ]
      }
    },
    {
      "type": "Feature",
      "properties": {
        "norad_id": 40271,
        "name": "INTELSAT 30 (IS-30)",
        "group": "intelsat",
        "lat": 0.03386257972324634,
        "lon": 129.52646304938528,
        "alt_km": 35781.92181727937,
        "timestamp": "2025-12-26T08:37:54.237671+00:00",
        "meta_object_name": "INTELSAT 30 (IS-30)",
        "meta_object_id": "2014-062A",
        "meta_epoch": "2025-12-25T03:32:01.529088",
        "meta_mean_motion": 1.00271148,
        "meta_eccentricity": 0.0001447,
        "meta_inclination": 0.0153,
        "meta_ra_of_asc_node": 34.2697,
        "meta_arg_of_pericenter": 50.7902,
        "meta_mean_anomaly": 326.8001,
        "meta_ephemeris_type": 0,
        "meta_classification_type": "U",
        "meta_norad_cat_id": 40271,
        "meta_element_set_no": 999,
        "meta_rev_at_epoch": 504,
        "meta_bstar": 0,
        "meta_mean_motion_dot": -1.3e-06,
        "meta_mean_motion_ddot": 0,
        "tle_line1": "1 40271U 14062A   25359.14723992 -.00000130  00000+0  00000+0 0  9991",
        "tle_line2": "2 40271   0.0153  34.2697 0001447  50.7902 326.8001  1.00271148  5048"
      },
      "geometry": {
        "type": "Point",
        "coordinates": [
          129.52646304938528,
          0.03386257972324634
        ]
      }
    },
    {
      "type": "Feature",
      "properties": {
        "norad_id": 40333,
        "name": "DIRECTV 14",
        "group": "intelsat",
        "lat": 0.0242684409758186,
        "lon": 125.41359114662244,
        "alt_km": 35784.42710826107,
        "timestamp": "2025-12-26T08:37:54.237683+00:00",
        "meta_object_name": "DIRECTV 14",
        "meta_object_id": "2014-078B",
        "meta_epoch": "2025-12-24T12:37:43.773312",
        "meta_mean_motion": 1.00279829,
        "meta_eccentricity": 3.885e-05,
        "meta_inclination": 0.0184,
        "meta_ra_of_asc_node": 340.4706,
        "meta_arg_of_pericenter": 254.7884,
        "meta_mean_anomaly": 308.2619,
        "meta_ephemeris_type": 0,
        "meta_classification_type": "U",
        "meta_norad_cat_id": 40333,
        "meta_element_set_no": 999,
        "meta_rev_at_epoch": 4029,
        "meta_bstar": 0,
        "meta_mean_motion_dot": -1.06e-06,
        "meta_mean_motion_ddot": 0,
        "tle_line1": "1 40333U 14078B   25358.52620108 -.00000106  00000+0  00000+0 0  9996",
        "tle_line2": "2 40333   0.0184 340.4706 0000388 254.7884 308.2619  1.00279829 40291"
      },
      "geometry": {
        "type": "Point",
        "coordinates": [
          125.41359114662244,
          0.0242684409758186
        ]
      }
    },
    {
      "type": "Feature",
      "properties": {
        "norad_id": 40663,
        "name": "DIRECTV 15",
        "group": "intelsat",
        "lat": 0.03681426096529481,
        "lon": 121.66496251708735,
        "alt_km": 35786.307860387715,
        "timestamp": "2025-12-26T08:37:54.237695+00:00",
        "meta_object_name": "DIRECTV 15",
        "meta_object_id": "2015-026A",
        "meta_epoch": "2025-12-25T16:00:02.811744",
        "meta_mean_motion": 1.00267803,
        "meta_eccentricity": 3.367e-05,
        "meta_inclination": 0.018,
        "meta_ra_of_asc_node": 26.1792,
        "meta_arg_of_pericenter": 146.2748,
        "meta_mean_anomaly": 59.0835,
        "meta_ephemeris_type": 0,
        "meta_classification_type": "U",
        "meta_norad_cat_id": 40663,
        "meta_element_set_no": 999,
        "meta_rev_at_epoch": 3872,
        "meta_bstar": 0,
        "meta_mean_motion_dot": -8e-07,
        "meta_mean_motion_ddot": 0,
        "tle_line1": "1 40663U 15026A   25359.66669921 -.00000080  00000+0  00000+0 0  9999",
        "tle_line2": "2 40663   0.0180  26.1792 0000336 146.2748  59.0835  1.00267803 38728"
      },
      "geometry": {
        "type": "Point",
        "coordinates": [
          121.66496251708735,
          0.03681426096529481
        ]
      }
    },
    {
      "type": "Feature",
      "properties": {
        "norad_id": 40664,
        "name": "SKY MEXICO-1",
        "group": "intelsat",
        "lat": 0.025010224913667497,
        "lon": 145.77986607114966,
        "alt_km": 35795.73632113392,
        "timestamp": "2025-12-26T08:37:54.237706+00:00",
        "meta_object_name": "SKY MEXICO-1",
        "meta_object_id": "2015-026B",
        "meta_epoch": "2025-12-25T22:57:48.561120",
        "meta_mean_motion": 1.00269655,
        "meta_eccentricity": 0.0002599,
        "meta_inclination": 0.0153,
        "meta_ra_of_asc_node": 12.1574,
        "meta_arg_of_pericenter": 278.8916,
        "meta_mean_anomaly": 69.3374,
        "meta_ephemeris_type": 0,
        "meta_classification_type": "U",
        "meta_norad_cat_id": 40664,
        "meta_element_set_no": 999,
        "meta_rev_at_epoch": 3871,
        "meta_bstar": 0,
        "meta_mean_motion_dot": -2.13e-06,
        "meta_mean_motion_ddot": 0,
        "tle_line1": "1 40664U 15026B   25359.95681205 -.00000213  00000+0  00000+0 0  9999",
        "tle_line2": "2 40664   0.0153  12.1574 0002599 278.8916  69.3374  1.00269655 38712"
      },
      "geometry": {
        "type": "Point",
        "coordinates": [
          145.77986607114966,
          0.025010224913667497
        ]
      }
    },
    {
      "type": "Feature",
      "properties": {
        "norad_id": 40874,
        "name": "INTELSAT 34 (IS-34)",
        "group": "intelsat",
        "lat": 0.001515073511762145,
        "lon": 169.0672346133319,
        "alt_km": 35784.66753942001,
        "timestamp": "2025-12-26T08:37:54.237718+00:00",
        "meta_object_name": "INTELSAT 34 (IS-34)",
        "meta_object_id": "2015-039A",
        "meta_epoch": "2025-12-26T01:50:17.564352",
        "meta_mean_motion": 1.00269247,
        "meta_eccentricity": 5.15e-05,
        "meta_inclination": 0.0147,
        "meta_ra_of_asc_node": 340.5004,
        "meta_arg_of_pericenter": 185.0401,
        "meta_mean_anomaly": 261.3543,
        "meta_ephemeris_type": 0,
        "meta_classification_type": "U",
        "meta_norad_cat_id": 40874,
        "meta_element_set_no": 999,
        "meta_rev_at_epoch": 3788,
        "meta_bstar": 0,
        "meta_mean_motion_dot": -2.64e-06,
        "meta_mean_motion_ddot": 0,
        "tle_line1": "1 40874U 15039A   25360.07659218 -.00000264  00000+0  00000+0 0  9996",
        "tle_line2": "2 40874   0.0147 340.5004 0000515 185.0401 261.3543  1.00269247 37884"
      },
      "geometry": {
        "type": "Point",
        "coordinates": [
          169.0672346133319,
          0.001515073511762145
        ]
      }
    }
  ]
}